{"fetched_at":"2026-07-06T08:47:05.309Z","source":"https://celestrak.org/NORAD/elements/gp.php?NAME=ICEYE&FORMAT=JSON","constellation":"iceye","records":[{"OBJECT_NAME":"ICEYE-X53","OBJECT_ID":"2025-135BJ","EPOCH":"2026-07-05T14:59:39.721920","CLASSIFICATION_TYPE":"U","MEAN_MOTION":15.00854862,"ECCENTRICITY":0.00015143,"INCLINATION":97.7373,"RA_OF_ASC_NODE":303.3278,"ARG_OF_PERICENTER":163.6963,"MEAN_ANOMALY":196.431,"EPHEMERIS_TYPE":0,"NORAD_CAT_ID":64584,"ELEMENT_SET_NO":999,"REV_AT_EPOCH":5684,"BSTAR":0.000061728467,"MEAN_MOTION_DOT":0.00000725,"MEAN_MOTION_DDOT":0},{"OBJECT_NAME":"ICEYE-X65","OBJECT_ID":"2025-248H","EPOCH":"2026-07-05T00:53:14.653824","CLASSIFICATION_TYPE":"U","MEAN_MOTION":15.07883883,"ECCENTRICITY":0.0004491,"INCLINATION":45.4048,"RA_OF_ASC_NODE":40.3183,"ARG_OF_PERICENTER":140.639,"MEAN_ANOMALY":219.4819,"EPHEMERIS_TYPE":0,"NORAD_CAT_ID":66300,"ELEMENT_SET_NO":999,"REV_AT_EPOCH":3821,"BSTAR":0.00036004,"MEAN_MOTION_DOT":0.00005364,"MEAN_MOTION_DDOT":0},{"OBJECT_NAME":"ICEYE-X66","OBJECT_ID":"2025-248J","EPOCH":"2026-07-04T23:26:42.779328","CLASSIFICATION_TYPE":"U","MEAN_MOTION":15.09129558,"ECCENTRICITY":0.0004132,"INCLINATION":45.4018,"RA_OF_ASC_NODE":39.8223,"ARG_OF_PERICENTER":134.6526,"MEAN_ANOMALY":225.4693,"EPHEMERIS_TYPE":0,"NORAD_CAT_ID":66301,"ELEMENT_SET_NO":999,"REV_AT_EPOCH":3819,"BSTAR":0.00037605,"MEAN_MOTION_DOT":0.00005815,"MEAN_MOTION_DDOT":0},{"OBJECT_NAME":"ICEYE-X67","OBJECT_ID":"2025-248K","EPOCH":"2026-07-05T00:02:05.347392","CLASSIFICATION_TYPE":"U","MEAN_MOTION":15.09112399,"ECCENTRICITY":0.0005737,"INCLINATION":45.4053,"RA_OF_ASC_NODE":39.2662,"ARG_OF_PERICENTER":136.5846,"MEAN_ANOMALY":223.5489,"EPHEMERIS_TYPE":0,"NORAD_CAT_ID":66302,"ELEMENT_SET_NO":999,"REV_AT_EPOCH":3821,"BSTAR":0.00039552,"MEAN_MOTION_DOT":0.00006126,"MEAN_MOTION_DDOT":0},{"OBJECT_NAME":"ICEYE-X58","OBJECT_ID":"2025-276CP","EPOCH":"2026-07-05T04:32:42.803520","CLASSIFICATION_TYPE":"U","MEAN_MOTION":15.17352102,"ECCENTRICITY":0.00012548,"INCLINATION":97.4175,"RA_OF_ASC_NODE":259.2743,"ARG_OF_PERICENTER":272.5844,"MEAN_ANOMALY":87.5246,"EPHEMERIS_TYPE":0,"NORAD_CAT_ID":66751,"ELEMENT_SET_NO":999,"REV_AT_EPOCH":3314,"BSTAR":0.00015760038,"MEAN_MOTION_DOT":0.00003079,"MEAN_MOTION_DDOT":0},{"OBJECT_NAME":"ICEYE-X59","OBJECT_ID":"2025-276CQ","EPOCH":"2026-07-05T09:51:54.781344","CLASSIFICATION_TYPE":"U","MEAN_MOTION":15.00690658,"ECCENTRICITY":0.00002003,"INCLINATION":97.4366,"RA_OF_ASC_NODE":256.9315,"ARG_OF_PERICENTER":131.0968,"MEAN_ANOMALY":229.0274,"EPHEMERIS_TYPE":0,"NORAD_CAT_ID":66752,"ELEMENT_SET_NO":999,"REV_AT_EPOCH":3300,"BSTAR":0.00049805513,"MEAN_MOTION_DOT":0.00006252,"MEAN_MOTION_DDOT":0},{"OBJECT_NAME":"ICEYE-X60","OBJECT_ID":"2025-276CR","EPOCH":"2026-07-05T04:49:20.774496","CLASSIFICATION_TYPE":"U","MEAN_MOTION":15.10939943,"ECCENTRICITY":0.00016332,"INCLINATION":97.4182,"RA_OF_ASC_NODE":258.3388,"ARG_OF_PERICENTER":12.0864,"MEAN_ANOMALY":348.0405,"EPHEMERIS_TYPE":0,"NORAD_CAT_ID":66753,"ELEMENT_SET_NO":999,"REV_AT_EPOCH":3308,"BSTAR":0.00045192808,"MEAN_MOTION_DOT":0.00007476,"MEAN_MOTION_DDOT":0},{"OBJECT_NAME":"ICEYE-X61","OBJECT_ID":"2025-276CS","EPOCH":"2026-07-05T05:11:08.269152","CLASSIFICATION_TYPE":"U","MEAN_MOTION":15.18568384,"ECCENTRICITY":0.0001581,"INCLINATION":97.4191,"RA_OF_ASC_NODE":259.3702,"ARG_OF_PERICENTER":274.9769,"MEAN_ANOMALY":85.1285,"EPHEMERIS_TYPE":0,"NORAD_CAT_ID":66754,"ELEMENT_SET_NO":999,"REV_AT_EPOCH":3315,"BSTAR":0.00027867,"MEAN_MOTION_DOT":0.00005693,"MEAN_MOTION_DDOT":0},{"OBJECT_NAME":"ICEYE-X62","OBJECT_ID":"2025-276CT","EPOCH":"2026-07-05T03:41:05.372160","CLASSIFICATION_TYPE":"U","MEAN_MOTION":15.10104556,"ECCENTRICITY":0.0001139,"INCLINATION":97.4191,"RA_OF_ASC_NODE":257.7994,"ARG_OF_PERICENTER":338.854,"MEAN_ANOMALY":21.2643,"EPHEMERIS_TYPE":0,"NORAD_CAT_ID":66755,"ELEMENT_SET_NO":999,"REV_AT_EPOCH":3304,"BSTAR":0.00022611,"MEAN_MOTION_DOT":0.00003622,"MEAN_MOTION_DDOT":0},{"OBJECT_NAME":"ICEYE-X63","OBJECT_ID":"2026-004K","EPOCH":"2026-07-05T07:14:07.751040","CLASSIFICATION_TYPE":"U","MEAN_MOTION":14.88337052,"ECCENTRICITY":0.0005805,"INCLINATION":97.8007,"RA_OF_ASC_NODE":184.6578,"ARG_OF_PERICENTER":76.0604,"MEAN_ANOMALY":284.1258,"EPHEMERIS_TYPE":0,"NORAD_CAT_ID":67372,"ELEMENT_SET_NO":999,"REV_AT_EPOCH":2599,"BSTAR":0.00014927,"MEAN_MOTION_DOT":0.00001327,"MEAN_MOTION_DDOT":0},{"OBJECT_NAME":"ICEYE-X64","OBJECT_ID":"2026-004L","EPOCH":"2026-07-05T09:57:37.836000","CLASSIFICATION_TYPE":"U","MEAN_MOTION":14.87971693,"ECCENTRICITY":0.0007589,"INCLINATION":97.802,"RA_OF_ASC_NODE":184.6927,"ARG_OF_PERICENTER":79.4921,"MEAN_ANOMALY":280.715,"EPHEMERIS_TYPE":0,"NORAD_CAT_ID":67373,"ELEMENT_SET_NO":999,"REV_AT_EPOCH":2600,"BSTAR":0.0002088,"MEAN_MOTION_DOT":0.00001861,"MEAN_MOTION_DDOT":0},{"OBJECT_NAME":"ICEYE-X71","OBJECT_ID":"2026-067CG","EPOCH":"2026-07-05T07:22:07.580352","CLASSIFICATION_TYPE":"U","MEAN_MOTION":14.91763624,"ECCENTRICITY":0.0001965,"INCLINATION":97.7621,"RA_OF_ASC_NODE":144.2643,"ARG_OF_PERICENTER":20.2758,"MEAN_ANOMALY":339.8539,"EPHEMERIS_TYPE":0,"NORAD_CAT_ID":68494,"ELEMENT_SET_NO":999,"REV_AT_EPOCH":1442,"BSTAR":0.00046027,"MEAN_MOTION_DOT":0.00004583,"MEAN_MOTION_DDOT":0},{"OBJECT_NAME":"ICEYE-X73","OBJECT_ID":"2026-067CJ","EPOCH":"2026-07-05T08:07:18.130656","CLASSIFICATION_TYPE":"U","MEAN_MOTION":14.92317506,"ECCENTRICITY":0.000057,"INCLINATION":97.7614,"RA_OF_ASC_NODE":144.3729,"ARG_OF_PERICENTER":168.4621,"MEAN_ANOMALY":191.6611,"EPHEMERIS_TYPE":0,"NORAD_CAT_ID":68496,"ELEMENT_SET_NO":999,"REV_AT_EPOCH":1443,"BSTAR":0.00036729,"MEAN_MOTION_DOT":0.00003697,"MEAN_MOTION_DDOT":0},{"OBJECT_NAME":"ICEYE-X75","OBJECT_ID":"2026-067CK","EPOCH":"2026-07-04T20:56:13.315776","CLASSIFICATION_TYPE":"U","MEAN_MOTION":14.92159179,"ECCENTRICITY":0.0000532,"INCLINATION":97.76,"RA_OF_ASC_NODE":143.8857,"ARG_OF_PERICENTER":150.5246,"MEAN_ANOMALY":209.6003,"EPHEMERIS_TYPE":0,"NORAD_CAT_ID":68497,"ELEMENT_SET_NO":999,"REV_AT_EPOCH":1436,"BSTAR":0.00012782,"MEAN_MOTION_DOT":0.00001245,"MEAN_MOTION_DDOT":0},{"OBJECT_NAME":"ICEYE-X74","OBJECT_ID":"2026-067CN","EPOCH":"2026-07-05T07:20:52.942848","CLASSIFICATION_TYPE":"U","MEAN_MOTION":14.91763512,"ECCENTRICITY":0.0001766,"INCLINATION":97.7625,"RA_OF_ASC_NODE":144.2731,"ARG_OF_PERICENTER":16.9537,"MEAN_ANOMALY":343.1741,"EPHEMERIS_TYPE":0,"NORAD_CAT_ID":68500,"ELEMENT_SET_NO":999,"REV_AT_EPOCH":1442,"BSTAR":0.00042744,"MEAN_MOTION_DOT":0.00004252,"MEAN_MOTION_DDOT":0},{"OBJECT_NAME":"ICEYE-X76","OBJECT_ID":"2026-067CQ","EPOCH":"2026-07-04T19:58:29.881920","CLASSIFICATION_TYPE":"U","MEAN_MOTION":14.91736788,"ECCENTRICITY":0.0001497,"INCLINATION":97.7632,"RA_OF_ASC_NODE":143.8235,"ARG_OF_PERICENTER":5.1384,"MEAN_ANOMALY":354.985,"EPHEMERIS_TYPE":0,"NORAD_CAT_ID":68502,"ELEMENT_SET_NO":999,"REV_AT_EPOCH":1435,"BSTAR":0.00016205,"MEAN_MOTION_DOT":0.00001576,"MEAN_MOTION_DDOT":0}]}
