ICEYE-X53               
1 64584U 25135BJ  26186.62476530  .00000725  00000+0  61728-4 0  9990
2 64584  97.7373 303.3278 0001514 163.6963 196.4310 15.00854862 56842
ICEYE-X65               
1 66300U 25248H   26186.03697517  .00005364  00000+0  36004-3 0  9990
2 66300  45.4048  40.3183 0004490 140.6390 219.4819 15.07883883 38210
ICEYE-X66               
1 66301U 25248J   26185.97688402  .00005815  00000+0  37605-3 0  9995
2 66301  45.4018  39.8223 0004131 134.6526 225.4693 15.09129559 38191
ICEYE-X67               
1 66302U 25248K   26186.00145078  .00006126  00000+0  39552-3 0  9997
2 66302  45.4053  39.2662 0005736 136.5846 223.5489 15.09112399 38219
ICEYE-X58               
1 66751U 25276CP  26186.18938430  .00003079  00000+0  15760-3 0  9996
2 66751  97.4175 259.2743 0001254 272.5844  87.5246 15.17352102 33146
ICEYE-X59               
1 66752U 25276CQ  26186.41105071  .00006252  00000+0  49806-3 0  9994
2 66752  97.4366 256.9315 0000200 131.0968 229.0274 15.00690658 33006
ICEYE-X60               
1 66753U 25276CR  26186.20093489  .00007476  00000+0  45193-3 0  9995
2 66753  97.4182 258.3388 0001633  12.0864 348.0405 15.10939943 33083
ICEYE-X61               
1 66754U 25276CS  26186.21606793  .00005693  00000+0  27867-3 0  9992
2 66754  97.4191 259.3702 0001581 274.9769  85.1285 15.18568384 33158
ICEYE-X62               
1 66755U 25276CT  26186.15353440  .00003622  00000+0  22611-3 0  9996
2 66755  97.4191 257.7994 0001139 338.8540  21.2643 15.10104556 33046
ICEYE-X63               
1 67372U 26004K   26186.30147860  .00001327  00000+0  14927-3 0  9997
2 67372  97.8007 184.6578 0005804  76.0604 284.1258 14.88337052 25993
ICEYE-X64               
1 67373U 26004L   26186.41502125  .00001861  00000+0  20880-3 0  9997
2 67373  97.8020 184.6927 0007588  79.4921 280.7150 14.87971694 26008
ICEYE-X71               
1 68494U 26067CG  26186.30703218  .00004583  00000+0  46027-3 0  9990
2 68494  97.7621 144.2643 0001965  20.2758 339.8539 14.91763624 14428
ICEYE-X73               
1 68496U 26067CJ  26186.33840430  .00003697  00000+0  36729-3 0  9996
2 68496  97.7614 144.3729 0000570 168.4621 191.6611 14.92317506 14434
ICEYE-X75               
1 68497U 26067CK  26185.87237635  .00001245  00000+0  12782-3 0  9992
2 68497  97.7600 143.8857 0000532 150.5246 209.6003 14.92159179 14366
ICEYE-X74               
1 68500U 26067CN  26186.30616833  .00004252  00000+0  42744-3 0  9999
2 68500  97.7625 144.2731 0001766  16.9537 343.1741 14.91763512 14423
ICEYE-X76               
1 68502U 26067CQ  26185.83229031  .00001576  00000+0  16205-3 0  9997
2 68502  97.7632 143.8235 0001496   5.1384 354.9850 14.91736788 14355
